NORAD_CAT_ID,OBJECT_NAME,OBJECT_TYPE,EPOCH,MEAN_MOTION,ECCENTRICITY,INCLINATION,RA_OF_ASC_NODE,ARG_OF_PERICENTER,MEAN_ANOMALY,BSTAR,MEAN_MOTION_DOT,MEAN_MOTION_DDOT,TLE_LINE0,TLE_LINE1,TLE_LINE2,SEMIMAJOR_AXIS,PERIOD,APOGEE,PERIGEE,DECAYED
53851.0,STARLINK-4755,PAYLOAD,2023-01-02 18:21:25,15.08843706,0.0001220999999999,53.219,109.969,54.732,305.3786,-4.5617e-05,-1.014e-05,0.0,0 STARLINK-4755,1 53851U 22114AK  23002.76488047 -.00001014  00000-0 -45617-4 0  9998,2 53851  53.2190 109.9690 0001221  54.7320 305.3786 15.08843706 17568,6917.869000000002,95.437,540.5790000000002,538.889,0.0
53851.0,STARLINK-4755,PAYLOAD,2023-01-03 18:12:13,15.088223499999998,0.0001434,53.219,105.5095,48.8528,311.2587,7.426899999999999e-05,8.94e-06,0.0,0 STARLINK-4755,1 53851U 22114AK  23003.75849378  .00000894  00000-0  74269-4 0  9994,2 53851  53.2190 105.5095 0001434  48.8528 311.2587 15.08822350 17173,6917.934,95.439,540.7909999999998,538.807,0.0
53851.0,STARLINK-4755,PAYLOAD,2023-01-04 13:16:51,15.0883823,0.0001328,53.2198,101.9401,60.4732,299.6392,-7.416900000000003e-06,-4.06e-06,0.0,0 STARLINK-4755,1 53851U 22114AK  23004.55336954 -.00000406  00000-0 -74169-5 0  9995,2 53851  53.2198 101.9401 0001328  60.4732 299.6392 15.08838230 17291,6917.886,95.438,540.669,538.832,0.0
53851.0,STARLINK-4755,PAYLOAD,2023-01-04 22:49:10,15.08829273,0.0001354,53.2193,100.1569,57.4209,302.6914,-6.748e-05,-1.361e-05,0.0,0 STARLINK-4755,1 53851U 22114AK  23004.95081912 -.00001361  00000-0 -67480-4 0  9998,2 53851  53.2193 100.1569 0001354  57.4209 302.6914 15.08829273 17355,6917.913000000001,95.438,540.715,538.841,0.0
53851.0,STARLINK-4755,PAYLOAD,2023-01-05 08:21:30,15.08814597,0.0001633,53.2194,98.3726,71.2384,288.8785,-8.266700000000001e-05,-1.602e-05,0.0,0 STARLINK-4755,1 53851U 22114AK  23005.34827326 -.00001602  00000-0 -82667-4 0  9991,2 53851  53.2194  98.3726 0001633  71.2384 288.8785 15.08814597 17418,6917.958000000001,95.439,540.953,538.693,0.0
53851.0,STARLINK-4755,PAYLOAD,2023-01-05 13:07:40,15.08818829,0.0001712,53.2205,97.4816,72.7811,287.3368,-6.3755e-05,-1.302e-05,0.0,0 STARLINK-4755,1 53851U 22114AK  23005.54699312 -.00001302  00000-0 -63755-4 0  9999,2 53851  53.2205  97.4816 0001712  72.7811 287.3368 15.08818829 17985,6917.945,95.439,540.994,538.626,0.0
53851.0,STARLINK-4755,PAYLOAD,2023-01-05 14:43:03,15.08817986,0.0001666999999999,53.2205,97.1843,70.7117,289.4055,-6.848399999999999e-05,-1.377e-05,0.0,0 STARLINK-4755,1 53851U 22114AK  23005.61323474 -.00001377  00000-0 -68484-4 0  9996,2 53851  53.2205  97.1843 0001667  70.7117 289.4055 15.08817986 17998,6917.948,95.439,540.966,538.659,0.0
53851.0,STARLINK-4755,PAYLOAD,2023-01-06 06:36:53,15.08836184,0.0001436,53.2188,94.2084,72.2433,287.8716,6.2902e-05,7.13e-06,0.0,0 STARLINK-4755,1 53851U 22114AK  23006.27562371  .00000713  00000-0  62902-4 0  9990,2 53851  53.2188  94.2084 0001436  72.2433 287.8716 15.08836184 17554,6917.892,95.438,540.75,538.764,0.0
53851.0,STARLINK-4755,PAYLOAD,2023-01-06 12:58:26,15.08839764,0.0001450999999999,53.219,93.0193,73.1937,286.9214,3.4784e-05,2.66e-06,0.0,0 STARLINK-4755,1 53851U 22114AK  23006.54058351  .00000266  00000-0  34784-4 0  9998,2 53851  53.2190  93.0193 0001451  73.1937 286.9214 15.08839764 18136,6917.880999999999,95.438,540.75,538.742,0.0
53851.0,STARLINK-4755,PAYLOAD,2023-01-07 04:52:18,15.08822823,0.000144,53.2189,90.0457,73.9336,286.1815,0.00017579,2.51e-05,0.0,0 STARLINK-4755,1 53851U 22114AK  23007.20299355  .00002510  00000-0  17579-3 0  9999,2 53851  53.2189  90.0457 0001440  73.9336 286.1815 15.08822823 17690,6917.933000000001,95.439,540.794,538.802,0.0
53851.0,STARLINK-4755,PAYLOAD,2023-01-07 16:00:01,15.08824351,0.0001083,53.2185,87.963,78.4457,281.6657,2.7877e-05,1.56e-06,0.0,0 STARLINK-4755,1 53851U 22114AK  23007.66668167  .00000156  00000-0  27877-4 0  9997,2 53851  53.2185  87.9630 0001083  78.4457 281.6657 15.08824351 18302,6917.928000000001,95.439,540.5419999999998,539.044,0.0
53851.0,STARLINK-4755,PAYLOAD,2023-01-08 11:04:37,15.08844711,7.730000000000001e-05,53.2198,84.3956,78.9601,281.1478,5.842e-05,6.42e-06,0.0,0 STARLINK-4755,1 53851U 22114AK  23008.46154837  .00000642  00000-0  58420-4 0  9998,2 53851  53.2198  84.3956 0000773  78.9601 281.1478 15.08844711 17889,6917.866,95.437,540.266,539.196,0.0
53851.0,STARLINK-4755,PAYLOAD,2023-01-08 14:15:23,15.08855721,0.0001375,53.2189,83.8013,76.7109,283.4036,2.8552e-05,1.67e-06,0.0,0 STARLINK-4755,1 53851U 22114AK  23008.59402206  .00000167  00000-0  28552-4 0  9993,2 53851  53.2189  83.8013 0001375  76.7109 283.4036 15.08855721 17906,6917.831999999999,95.437,540.649,538.746,0.0
53851.0,STARLINK-4755,PAYLOAD,2023-01-08 22:12:19,15.08847458,0.0001686999999999,53.2201,82.3138,78.0702,282.0479,-1.5893e-05,-5.41e-06,0.0,0 STARLINK-4755,1 53851U 22114AK  23008.92522740 -.00000541  00000-0 -15893-4 0  9998,2 53851  53.2201  82.3138 0001687  78.0702 282.0479 15.08847458 18492,6917.858,95.437,540.89,538.556,0.0
53851.0,STARLINK-4755,PAYLOAD,2023-01-09 04:33:52,15.08835599,0.0001582,53.2187,81.1273,62.838,297.2773,0.00013364,1.839e-05,0.0,0 STARLINK-4755,1 53851U 22114AK  23009.19019009  .00001839  00000-0  13364-3 0  9996,2 53851  53.2187  81.1273 0001582  62.8380 297.2773 15.08835599 17991,6917.894,95.438,540.8530000000002,538.664,0.0
53851.0,STARLINK-4755,PAYLOAD,2023-01-09 14:06:10,15.08842669,0.0001183,53.218,79.3392,99.9344,260.1781,0.00012284,1.668e-05,0.0,0 STARLINK-4755,1 53851U 22114AK  23009.58762396  .00001668  00000-0  12284-3 0  9993,2 53851  53.2180  79.3392 0001183  99.9344 260.1781 15.08842669 18594,6917.871999999999,95.437,540.556,538.919,0.0
53851.0,STARLINK-4755,PAYLOAD,2023-01-09 22:03:07,15.0883102,0.0001032,53.2209,77.8531,93.1771,266.9339,-3.2686e-05,-8.08e-06,0.0,0 STARLINK-4755,1 53851U 22114AK  23009.91883673 -.00000808  00000-0 -32686-4 0  9998,2 53851  53.2209  77.8531 0001032  93.1771 266.9339 15.08831020 18645,6917.908,95.438,540.487,539.059,0.0
53851.0,STARLINK-4755,PAYLOAD,2023-01-10 09:10:48,15.08843469,0.0001193,53.2186,75.7743,77.2328,282.8798,-7.8627e-05,-1.539e-05,0.0,0 STARLINK-4755,1 53851U 22114AK  23010.38251086 -.00001539  00000-0 -78627-4 0  9995,2 53851  53.2186  75.7743 0001193  77.2328 282.8798 15.08843469 18174,6917.87,95.437,540.56,538.909,0.0
53851.0,STARLINK-4755,PAYLOAD,2023-01-10 13:56:58,15.0884193,0.0001315999999999,53.2178,74.88,94.0484,266.0658,2.0707e-06,-2.55e-06,0.0,0 STARLINK-4755,1 53851U 22114AK  23010.58122780 -.00000255  00000-0  20707-5 0  9995,2 53851  53.2178  74.8800 0001316  94.0484 266.0658 15.08841930 18749,6917.874,95.437,540.65,538.8290000000002,0.0
53851.0,STARLINK-4755,PAYLOAD,2023-01-11 13:47:44,15.08846816,9.01e-05,53.2185,70.4193,98.5769,261.5325,5.5369e-06,-2e-06,0.0,0 STARLINK-4755,1 53851U 22114AK  23011.57482261 -.00000200  00000-0  55369-5 0  9990,2 53851  53.2185  70.4193 0000901  98.5769 261.5325 15.08846816 18354,6917.86,95.437,540.3480000000002,539.101,0.0
53851.0,STARLINK-4755,PAYLOAD,2023-01-12 15:13:55,15.08842116,7.23e-05,53.219,65.6624,82.2853,277.8222,2.39e-05,9.3e-07,0.0,0 STARLINK-4755,1 53851U 22114AK  23012.63466887  .00000093  00000-0  23900-4 0  9998,2 53851  53.2190  65.6624 0000723  82.2853 277.8222 15.08842116 18514,6917.874,95.437,540.239,539.239,0.0
53851.0,STARLINK-4755,PAYLOAD,2023-01-12 20:00:05,15.0883663,9.34e-05,53.2204,64.7694,75.1635,284.9461,-2.795e-05,-7.32e-06,0.0,0 STARLINK-4755,1 53851U 22114AK  23012.83339425 -.00000732  00000-0 -27950-4 0  9998,2 53851  53.2204  64.7694 0000934  75.1635 284.9461 15.08836630 18541,6917.891,95.438,540.4019999999998,539.11,0.0
53851.0,STARLINK-4755,PAYLOAD,2023-01-13 13:29:18,15.08854252,9e-05,53.2189,61.4988,75.0565,285.0526,7.9602e-05,9.8e-06,0.0,0 STARLINK-4755,1 53851U 22114AK  23013.56202052  .00000980  00000-0  79602-4 0  9998,2 53851  53.2189  61.4988 0000900  75.0565 285.0526 15.08854252 18653,6917.837,95.437,540.3240000000001,539.0790000000001,0.0
53851.0,STARLINK-4755,PAYLOAD,2023-01-13 19:50:53,15.08824664,0.0001302,53.2185,60.3104,80.0683,280.0456,-3.2027e-05,-7.97e-06,0.0,0 STARLINK-4755,1 53851U 22114AK  23013.82700573 -.00000797  00000-0 -32027-4 0  9996,2 53851  53.2185  60.3104 0001302  80.0683 280.0456 15.08824664 19237,6917.927,95.439,540.693,538.8919999999999,0.0
53851.0,STARLINK-4755,PAYLOAD,2023-01-14 06:58:35,15.08831416,9.81e-05,53.2189,58.2292,83.1158,276.9946,-4.463e-05,-9.98e-06,0.0,0 STARLINK-4755,1 53851U 22114AK  23014.29068472 -.00000998  00000-0 -44630-4 0  9999,2 53851  53.2189  58.2292 0000981  83.1158 276.9946 15.08831416 18766,6917.906999999999,95.438,540.45,539.0930000000001,0.0
53851.0,STARLINK-4755,PAYLOAD,2023-01-14 10:09:20,15.08841735,0.0001068,53.2203,57.6331,80.2538,279.8575,4.1447e-05,3.72e-06,0.0,0 STARLINK-4755,1 53851U 22114AK  23014.42315603  .00000372  00000-0  41447-4 0  9992,2 53851  53.2203  57.6331 0001068  80.2538 279.8575 15.08841735 18784,6917.875,95.437,540.479,539.001,0.0
53851.0,STARLINK-4755,PAYLOAD,2023-01-14 19:41:40,15.08837065,0.0001147999999999,53.2199,55.8499,86.2822,273.8301,-1.6727e-05,-5.54e-06,0.0,0 STARLINK-4755,1 53851U 22114AK  23014.82060191 -.00000554  00000-0 -16727-4 0  9992,2 53851  53.2199  55.8499 0001148  86.2822 273.8301 15.08837065 18843,6917.889,95.438,540.549,538.96,0.0
53851.0,STARLINK-4755,PAYLOAD,2023-01-15 11:35:30,15.08853652,0.0001044,53.2193,52.8756,94.3587,265.7525,1.2422e-05,-9.000000000000001e-07,0.0,0 STARLINK-4755,1 53851U 22114AK  23015.48299163 -.00000090  00000-0  12422-4 0  9990,2 53851  53.2193  52.8756 0001044  94.3587 265.7525 15.08853652 18942,6917.839,95.437,540.4259999999999,538.981,0.0
53851.0,STARLINK-4755,PAYLOAD,2023-01-15 19:32:26,15.08850551,0.0001165,53.22,51.3889,82.5396,277.5728,-7.5741e-06,-4.08e-06,0.0,0 STARLINK-4755,1 53851U 22114AK  23015.81419317 -.00000408  00000-0 -75741-5 0  9990,2 53851  53.2200  51.3889 0001165  82.5396 277.5728 15.08850551 19530,6917.848000000001,95.437,540.519,538.9069999999999,0.0
